ORBCOMM FM33 [-]        
1 25983U 99065D   24035.57479940  .00001377  00000+0  50508-3 0  9993
2 25983  45.0277 204.2052 0008461  79.8544  24.1517 14.37256709264348
ORBCOMM FM36 [-]        
1 25984U 99065E   24034.82547158  .00001072  00000+0  42095-3 0  9992
2 25984  45.0408 291.5908 0004120 319.5922  40.4619 14.35132706263202
ORBCOMM FM35 [+]        
1 25985U 99065F   24035.81657512  .00000976  00000+0  39070-3 0  9990
2 25985  45.0405 289.2859 0003470  51.2330 308.8827 14.34782525263154
ORBCOMM FM38 [-]        
1 33060U 08031A   24035.71723754  .00002879  00000+0  43438-3 0  9994
2 33060  48.4401 162.3020 0004658  61.3163 298.8218 14.76866883840964
ORBCOMM FM41 [-]        
1 33061U 08031B   24035.49695028  .00002782  00000+0  42338-3 0  9993
2 33061  48.4431 169.7434 0003931  44.2260  72.8627 14.76605018840436
ORBCOMM FM29 [-]        
1 33062U 08031C   24035.82557326  .00002947  00000+0  44768-3 0  9991
2 33062  48.4385 176.2096 0005568  46.2500 108.2590 14.76514546840392
ORBCOMM FM39 [-]        
1 33063U 08031D   24035.56473599  .00002526  00000+0  39611-3 0  9996
2 33063  48.4390 197.2689 0006849  19.6624 340.4552 14.75598112840066
